ESNQ 012150Z AUTO 34003KT 9999NDV FEW042/// OVC069/// 12/09 Q1020