KBOS 010859Z 06007KT 1/4SM R04R/2800V4500FT FG VV001 15/14 A2977 RMK AO2 