KLSV 011055Z AUTO 07007KT 10SM CLR 32/08 A2974 RMK AO2 SLP036 T03190080