KSFO 010756Z 30005KT 10SM FEW010 15/12 A2984 RMK AO2 SLP103 T01500117 402330133 