LFPO 010830Z 02004KT 340V070 9000 NSC 25/17 Q1021 NOSIG 