LFRN 011500Z AUTO 10007KT 070V130 9999NDV //////CB 32/15 Q1018